GLOBALSTAR M067         
1 32263U 07048A   25236.88233884 -.00000081  00000+0  12464-3 0  9996
2 32263  51.9709 194.9233 0001070 112.6748 264.7458 12.40676168818012
GLOBALSTAR M070         
1 32264U 07048B   25236.88738524 -.00000064  00000+0  22118-3 0  9996
2 32264  51.9744 279.2171 0000217 134.3761  33.4185 12.62321696822344
GLOBALSTAR M066         
1 32265U 07048C   25236.25467139 -.00000084  00000+0  89086-4 0  9999
2 32265  51.9596 190.3117 0004679 125.7550  20.4641 12.30273506823670
GLOBALSTAR M068         
1 32266U 07048D   25236.94206404 -.00000050  00000+0  29678-3 0  9995
2 32266  51.9879  92.6682 0000656 340.0546 129.7041 12.62827025826243
GLOBALSTAR M079         
1 37188U 10054A   25236.53198253 -.00000081  00000+0  12946-3 0  9995
2 37188  52.0040 291.7372 0000693 103.0210  45.8525 12.62266232685084
GLOBALSTAR M074         
1 37189U 10054B   25236.88033093 -.00000077  00000+0  15129-3 0  9995
2 37189  52.0018 289.9903 0000504 129.1696  42.0774 12.62270946685731
GLOBALSTAR M076         
1 37190U 10054C   25236.58734060 -.00000069  00000+0  19422-3 0  9997
2 37190  52.0030 291.0587 0000721 119.5909  39.9862 12.62264850685415
GLOBALSTAR M077         
1 37191U 10054D   25236.93919390 -.00000108  00000+0 -21045-4 0  9998
2 37191  52.0050 246.8527 0000266 104.9297 280.7038 12.62323100685833
